{"type": "FeatureCollection", "features": [ {"type": "Feature", "properties": {"norad_id": 66914, "name": "2025-284B", "group": "last-30-days", "lat": -23.599414199873504, "lon": -44.52605305214884, "alt_km": 510.8171025684096, "timestamp": "2025-12-11T13:55:00.916555+00:00", "meta": {"OBJECT_NAME": "2025-284B", "OBJECT_ID": "2025-284B", "EPOCH": "2025-12-11T05:06:58.411584", "MEAN_MOTION": 15.18871742, "ECCENTRICITY": 0.00082594, "INCLINATION": 80.4056, "RA_OF_ASC_NODE": 131.7006, "ARG_OF_PERICENTER": 251.8131, "MEAN_ANOMALY": 108.2198, "EPHEMERIS_TYPE": 0, "CLASSIFICATION_TYPE": "U", "NORAD_CAT_ID": 66914, "ELEMENT_SET_NO": 999, "REV_AT_EPOCH": 89, "BSTAR": 0.00073440396, "MEAN_MOTION_DOT": 0.00015357, "MEAN_MOTION_DDOT": 0}, "tle": {"line1": "1 66914U 25284B   25345.21317606  .00015357  00000+0  73440-3 0  9993", "line2": "2 66914  80.4056 131.7006 0008259 251.8131 108.2198 15.18871742   894"}}, "geometry": {"type": "Point", "coordinates": [-44.52605305214884, -23.599414199873504]}}, {"type": "Feature", "properties": {"norad_id": 66915, "name": "HULIANWANG DIGUI-105", "group": "last-30-days", "lat": 48.864259689892535, "lon": -164.022859240619, "alt_km": 873.6607435897149, "timestamp": "2025-12-11T13:55:00.916565+00:00", "meta": {"OBJECT_NAME": "HULIANWANG DIGUI-105", "OBJECT_ID": "2025-285A", "EPOCH": "2025-12-11T05:00:27.272736", "MEAN_MOTION": 14.05467524, "ECCENTRICITY": 0.00081251, "INCLINATION": 50.0035, "RA_OF_ASC_NODE": 123.5166, "ARG_OF_PERICENTER": 277.5008, "MEAN_ANOMALY": 82.4974, "EPHEMERIS_TYPE": 0, "CLASSIFICATION_TYPE": "U", "NORAD_CAT_ID": 66915, "ELEMENT_SET_NO": 999, "REV_AT_EPOCH": 69, "BSTAR": 0.00020268153, "MEAN_MOTION_DOT": 1.79e-06, "MEAN_MOTION_DDOT": 0}, "tle": {"line1": "1 66915U 25285A   25345.20864899  .00000179  00000+0  20268-3 0  9991", "line2": "2 66915  50.0035 123.5166 0008125 277.5008  82.4974 14.05467524   698"}}, "geometry": {"type": "Point", "coordinates": [-164.022859240619, 48.864259689892535]}}, {"type": "Feature", "properties": {"norad_id": 66916, "name": "HULIANWANG DIGUI-106", "group": "last-30-days", "lat": 49.050172780943825, "lon": -162.6631339642402, "alt_km": 872.8217126805021, "timestamp": "2025-12-11T13:55:00.916575+00:00", "meta": {"OBJECT_NAME": "HULIANWANG DIGUI-106", "OBJECT_ID": "2025-285B", "EPOCH": "2025-12-11T08:24:59.036256", "MEAN_MOTION": 14.05515589, "ECCENTRICITY": 0.00069599, "INCLINATION": 50.0046, "RA_OF_ASC_NODE": 122.9361, "ARG_OF_PERICENTER": 272.746, "MEAN_ANOMALY": 87.2648, "EPHEMERIS_TYPE": 0, "CLASSIFICATION_TYPE": "U", "NORAD_CAT_ID": 66916, "ELEMENT_SET_NO": 999, "REV_AT_EPOCH": 71, "BSTAR": 0.00034279231, "MEAN_MOTION_DOT": 4.08e-06, "MEAN_MOTION_DDOT": 0}, "tle": {"line1": "1 66916U 25285B   25345.35068329  .00000408  00000+0  34279-3 0  9994", "line2": "2 66916  50.0046 122.9361 0006959 272.7460  87.2648 14.05515589   712"}}, "geometry": {"type": "Point", "coordinates": [-162.6631339642402, 49.050172780943825]}}, {"type": "Feature", "properties": {"norad_id": 66917, "name": "HULIANWANG DIGUI-107", "group": "last-30-days", "lat": 49.287147471129494, "lon": -160.66768207394242, "alt_km": 872.827211021825, "timestamp": "2025-12-11T13:55:00.916585+00:00", "meta": {"OBJECT_NAME": "HULIANWANG DIGUI-107", "OBJECT_ID": "2025-285C", "EPOCH": "2025-12-11T08:24:37.403424", "MEAN_MOTION": 14.05581692, "ECCENTRICITY": 0.00075799, "INCLINATION": 50.0009, "RA_OF_ASC_NODE": 122.9314, "ARG_OF_PERICENTER": 280.4657, "MEAN_ANOMALY": 79.5394, "EPHEMERIS_TYPE": 0, "CLASSIFICATION_TYPE": "U", "NORAD_CAT_ID": 66917, "ELEMENT_SET_NO": 999, "REV_AT_EPOCH": 71, "BSTAR": 0.0003690922, "MEAN_MOTION_DOT": 4.52e-06, "MEAN_MOTION_DDOT": 0}, "tle": {"line1": "1 66917U 25285C   25345.35043291  .00000452  00000+0  36909-3 0  9997", "line2": "2 66917  50.0009 122.9314 0007579 280.4657  79.5394 14.05581692   713"}}, "geometry": {"type": "Point", "coordinates": [-160.66768207394242, 49.287147471129494]}}, {"type": "Feature", "properties": {"norad_id": 66918, "name": "HULIANWANG DIGUI-108", "group": "last-30-days", "lat": 49.62239409820223, "lon": -157.1895119238681, "alt_km": 871.7528502116766, "timestamp": "2025-12-11T13:55:00.916601+00:00", "meta": {"OBJECT_NAME": "HULIANWANG DIGUI-108", "OBJECT_ID": "2025-285D", "EPOCH": "2025-12-11T08:24:00.171072", "MEAN_MOTION": 14.05706281, "ECCENTRICITY": 0.0006468, "INCLINATION": 50.0043, "RA_OF_ASC_NODE": 122.931, "ARG_OF_PERICENTER": 275.6256, "MEAN_ANOMALY": 84.3912, "EPHEMERIS_TYPE": 0, "CLASSIFICATION_TYPE": "U", "NORAD_CAT_ID": 66918, "ELEMENT_SET_NO": 999, "REV_AT_EPOCH": 71, "BSTAR": 0.0003496585, "MEAN_MOTION_DOT": 4.21e-06, "MEAN_MOTION_DDOT": 0}, "tle": {"line1": "1 66918U 25285D   25345.35000198  .00000421  00000+0  34966-3 0  9994", "line2": "2 66918  50.0043 122.9310 0006468 275.6256  84.3912 14.05706281   718"}}, "geometry": {"type": "Point", "coordinates": [-157.1895119238681, 49.62239409820223]}}, {"type": "Feature", "properties": {"norad_id": 66919, "name": "HULIANWANG DIGUI-109", "group": "last-30-days", "lat": 49.66081836546689, "lon": -156.70883734800614, "alt_km": 872.3791458174237, "timestamp": "2025-12-11T13:55:00.916612+00:00", "meta": {"OBJECT_NAME": "HULIANWANG DIGUI-109", "OBJECT_ID": "2025-285E", "EPOCH": "2025-12-11T08:23:55.110624", "MEAN_MOTION": 14.05715712, "ECCENTRICITY": 0.00078805, "INCLINATION": 50.0056, "RA_OF_ASC_NODE": 122.9338, "ARG_OF_PERICENTER": 286.9731, "MEAN_ANOMALY": 73.031, "EPHEMERIS_TYPE": 0, "CLASSIFICATION_TYPE": "U", "NORAD_CAT_ID": 66919, "ELEMENT_SET_NO": 999, "REV_AT_EPOCH": 71, "BSTAR": 9.16247e-07, "MEAN_MOTION_DOT": -1.51e-06, "MEAN_MOTION_DDOT": 0}, "tle": {"line1": "1 66919U 25285E   25345.34994341 -.00000151  00000+0  91625-6 0  9995", "line2": "2 66919  50.0056 122.9338 0007880 286.9731  73.0310 14.05715712   711"}}, "geometry": {"type": "Point", "coordinates": [-156.70883734800614, 49.66081836546689]}}, {"type": "Feature", "properties": {"norad_id": 66920, "name": "HULIANWANG DIGUI-110", "group": "last-30-days", "lat": 49.88786749499101, "lon": -152.90882862940833, "alt_km": 870.6523288901735, "timestamp": "2025-12-11T13:55:00.916622+00:00", "meta": {"OBJECT_NAME": "HULIANWANG DIGUI-110", "OBJECT_ID": "2025-285F", "EPOCH": "2025-12-11T08:23:15.152352", "MEAN_MOTION": 14.05851922, "ECCENTRICITY": 0.00058225, "INCLINATION": 50.009, "RA_OF_ASC_NODE": 122.9348, "ARG_OF_PERICENTER": 283.9166, "MEAN_ANOMALY": 76.1092, "EPHEMERIS_TYPE": 0, "CLASSIFICATION_TYPE": "U", "NORAD_CAT_ID": 66920, "ELEMENT_SET_NO": 999, "REV_AT_EPOCH": 71, "BSTAR": 0.00032181801, "MEAN_MOTION_DOT": 3.77e-06, "MEAN_MOTION_DDOT": 0}, "tle": {"line1": "1 66920U 25285F   25345.34948093  .00000377  00000+0  32182-3 0  9999", "line2": "2 66920  50.0090 122.9348 0005822 283.9166  76.1092 14.05851922   710"}}, "geometry": {"type": "Point", "coordinates": [-152.90882862940833, 49.88786749499101]}}, {"type": "Feature", "properties": {"norad_id": 66921, "name": "HULIANWANG DIGUI-111", "group": "last-30-days", "lat": 49.92782575018243, "lon": -151.8952147712743, "alt_km": 871.1422238069881, "timestamp": "2025-12-11T13:55:00.916632+00:00", "meta": {"OBJECT_NAME": "HULIANWANG DIGUI-111", "OBJECT_ID": "2025-285G", "EPOCH": "2025-12-11T08:23:04.526016", "MEAN_MOTION": 14.0588586, "ECCENTRICITY": 0.00069771, "INCLINATION": 50.0106, "RA_OF_ASC_NODE": 122.9361, "ARG_OF_PERICENTER": 290.4663, "MEAN_ANOMALY": 69.5493, "EPHEMERIS_TYPE": 0, "CLASSIFICATION_TYPE": "U", "NORAD_CAT_ID": 66921, "ELEMENT_SET_NO": 999, "REV_AT_EPOCH": 71, "BSTAR": 0.00036503827, "MEAN_MOTION_DOT": 4.49e-06, "MEAN_MOTION_DDOT": 0}, "tle": {"line1": "1 66921U 25285G   25345.34935794  .00000449  00000+0  36504-3 0  9996", "line2": "2 66921  50.0106 122.9361 0006977 290.4663  69.5493 14.05885860   710"}}, "geometry": {"type": "Point", "coordinates": [-151.8952147712743, 49.92782575018243]}}, {"type": "Feature", "properties": {"norad_id": 66922, "name": "HULIANWANG DIGUI-112", "group": "last-30-days", "lat": 49.9886293953297, "lon": -148.5750803423086, "alt_km": 870.5427389243278, "timestamp": "2025-12-11T13:55:00.916642+00:00", "meta": {"OBJECT_NAME": "HULIANWANG DIGUI-112", "OBJECT_ID": "2025-285H", "EPOCH": "2025-12-11T06:40:08.810400", "MEAN_MOTION": 14.05999226, "ECCENTRICITY": 0.00069127, "INCLINATION": 50.0077, "RA_OF_ASC_NODE": 123.2205, "ARG_OF_PERICENTER": 296.5205, "MEAN_ANOMALY": 63.4991, "EPHEMERIS_TYPE": 0, "CLASSIFICATION_TYPE": "U", "NORAD_CAT_ID": 66922, "ELEMENT_SET_NO": 999, "REV_AT_EPOCH": 70, "BSTAR": 1.808422e-06, "MEAN_MOTION_DOT": -1.49e-06, "MEAN_MOTION_DDOT": 0}, "tle": {"line1": "1 66922U 25285H   25345.27787975 -.00000149  00000+0  18084-5 0  9998", "line2": "2 66922  50.0077 123.2205 0006912 296.5205  63.4991 14.05999226   704"}}, "geometry": {"type": "Point", "coordinates": [-148.5750803423086, 49.9886293953297]}}, {"type": "Feature", "properties": {"norad_id": 66923, "name": "HULIANWANG DIGUI-113", "group": "last-30-days", "lat": 49.98416061096991, "lon": -146.85150994373222, "alt_km": 869.5512176071288, "timestamp": "2025-12-11T13:55:00.916651+00:00", "meta": {"OBJECT_NAME": "HULIANWANG DIGUI-113", "OBJECT_ID": "2025-285J", "EPOCH": "2025-12-11T08:22:11.727840", "MEAN_MOTION": 14.06057212, "ECCENTRICITY": 0.00053988, "INCLINATION": 50.0077, "RA_OF_ASC_NODE": 122.9299, "ARG_OF_PERICENTER": 291.6539, "MEAN_ANOMALY": 68.3791, "EPHEMERIS_TYPE": 0, "CLASSIFICATION_TYPE": "U", "NORAD_CAT_ID": 66923, "ELEMENT_SET_NO": 999, "REV_AT_EPOCH": 71, "BSTAR": 0.00033931344, "MEAN_MOTION_DOT": 4.08e-06, "MEAN_MOTION_DDOT": 0}, "tle": {"line1": "1 66923U 25285J   25345.34874685  .00000408  00000+0  33931-3 0  9995", "line2": "2 66923  50.0077 122.9299 0005398 291.6539  68.3791 14.06057212   711"}}, "geometry": {"type": "Point", "coordinates": [-146.85150994373222, 49.98416061096991]}}]}